STARLINK-30327          
1 57707U 23129K   26068.51769668  .00007635  00000+0  29314-3 0  9995
2 57707  42.9974  85.9834 0023030  70.8320 289.5022 15.26626807140903
STARLINK-32250          
1 60425U 24144A   26068.67802953  .00002873  00000+0  10924-3 0  9992
2 60425  53.1607 217.4507 0001380  92.2396 267.8763 15.30154966 88409
